NORAD_CAT_ID,OBJECT_NAME,OBJECT_TYPE,EPOCH,MEAN_MOTION,ECCENTRICITY,INCLINATION,RA_OF_ASC_NODE,ARG_OF_PERICENTER,MEAN_ANOMALY,BSTAR,MEAN_MOTION_DOT,MEAN_MOTION_DDOT,TLE_LINE0,TLE_LINE1,TLE_LINE2,SEMIMAJOR_AXIS,PERIOD,APOGEE,PERIGEE,DECAYED
52535.0,STARLINK-3958,PAYLOAD,2023-09-09 12:26:00,15.08839852,0.0001469,53.2169,264.0166,98.8904,261.2255,5.3419e-05,5.62e-06,0.0,0 STARLINK-3958,1 52535U 22051C   23252.51805861  .00000562  00000-0  53419-4 0  9997,2 52535  53.2169 264.0166 0001469  98.8904 261.2255 15.08839852 73733,6917.881,95.438,540.762,538.73,0.0
52535.0,STARLINK-3958,PAYLOAD,2023-09-10 07:30:37,15.0884105,0.0001416,53.2162,260.4492,98.6647,261.4506,3.8346e-05,3.22e-06,0.0,0 STARLINK-3958,1 52535U 22051C   23253.31293901  .00000322  00000-0  38346-4 0  9998,2 52535  53.2162 260.4492 0001416  98.6647 261.4506 15.08841050 73859,6917.877,95.437,540.722,538.763,0.0
52535.0,STARLINK-3958,PAYLOAD,2023-09-10 17:02:56,15.08839278,0.0001418,53.2162,258.6648,98.4824,261.6329,1.7588e-05,-8e-08,0.0,0 STARLINK-3958,1 52535U 22051C   23253.71038105 -.00000008  00000-0  17588-4 0  9992,2 52535  53.2162 258.6648 0001418  98.4824 261.6329 15.08839278 73986,6917.883,95.438,540.729,538.767,0.0
52535.0,STARLINK-3958,PAYLOAD,2023-09-11 07:21:25,15.0884016,0.0001374,53.2163,255.9895,98.0578,262.057,7.8094e-05,9.55e-06,0.0,0 STARLINK-3958,1 52535U 22051C   23254.30654106  .00000955  00000-0  78094-4 0  9992,2 52535  53.2163 255.9895 0001374  98.0578 262.0570 15.08840160 74003,6917.88,95.438,540.695,538.794,0.0
52535.0,STARLINK-3958,PAYLOAD,2023-09-12 07:12:12,15.08839272,0.0001397,53.2164,251.5298,102.8519,257.2629,7.6785e-05,9.34e-06,0.0,0 STARLINK-3958,1 52535U 22051C   23255.30014370  .00000934  00000-0  76785-4 0  9998,2 52535  53.2164 251.5298 0001397 102.8519 257.2629 15.08839272 74224,6917.883,95.438,540.714,538.781,0.0
52535.0,STARLINK-3958,PAYLOAD,2023-09-13 08:38:22,15.08849002,0.0001337,53.2162,246.771,92.9607,267.1538,0.00012758,1.744e-05,0.0,0 STARLINK-3958,1 52535U 22051C   23256.35997765  .00001744  00000-0  12758-3 0  9991,2 52535  53.2162 246.7710 0001337  92.9607 267.1538 15.08849002 74386,6917.853,95.437,540.643,538.793,0.0
52535.0,STARLINK-3958,PAYLOAD,2023-09-13 16:35:18,15.08837913,0.0001452,53.217,245.285,87.9951,272.1207,4.8766e-05,4.88e-06,0.0,0 STARLINK-3958,1 52535U 22051C   23256.69118733  .00000488  00000-0  48766-4 0  9991,2 52535  53.2170 245.2850 0001452  87.9951 272.1207 15.08837913 74431,6917.887,95.438,540.756,538.747,0.0
52535.0,STARLINK-3958,PAYLOAD,2023-09-14 06:53:47,15.0883551,0.0001607,53.2172,242.6064,110.9888,249.1276,-4.5996e-05,-1.02e-05,0.0,0 STARLINK-3958,1 52535U 22051C   23257.28735301 -.00001020  00000-0 -45996-4 0  9990,2 52535  53.2172 242.6064 0001607 110.9888 249.1276 15.08835510 74452,6917.894,95.438,540.871,538.647,0.0
52535.0,STARLINK-3958,PAYLOAD,2023-09-14 16:26:05,15.08839379,0.0001733,53.2171,240.8238,67.2581,292.8594,9.3739e-05,1.204e-05,0.0,0 STARLINK-3958,1 52535U 22051C   23257.68479058  .00001204  00000-0  93739-4 0  9998,2 52535  53.2171 240.8238 0001733  67.2581 292.8594 15.08839379 74510,6917.882,95.438,540.946,538.548,0.0
52535.0,STARLINK-3958,PAYLOAD,2023-09-15 03:33:47,15.08848488,0.0001524,53.217,238.7417,88.8013,271.3154,9.0049e-05,1.146e-05,0.0,0 STARLINK-3958,1 52535U 22051C   23258.14846271  .00001146  00000-0  90049-4 0  9991,2 52535  53.2170 238.7417 0001524  88.8013 271.3154 15.08848488 74651,6917.854,95.437,540.774,538.665,0.0
52535.0,STARLINK-3958,PAYLOAD,2023-09-15 08:19:56,15.08852889,0.0001501,53.2171,237.849,90.8895,269.2269,0.00012751,1.743e-05,0.0,0 STARLINK-3958,1 52535U 22051C   23258.34717831  .00001743  00000-0  12751-3 0  9998,2 52535  53.2171 237.8490 0001501  90.8895 269.2269 15.08852889 74618,6917.841,95.437,540.744,538.668,0.0
52535.0,STARLINK-3958,PAYLOAD,2023-09-16 01:49:11,15.08837966,0.0001483,53.2164,234.5739,95.4694,264.6468,0.00012677,1.73e-05,0.0,0 STARLINK-3958,1 52535U 22051C   23259.07582594  .00001730  00000-0  12677-3 0  9998,2 52535  53.2164 234.5739 0001483  95.4694 264.6468 15.08837966 74795,6917.887,95.438,540.778,538.726,0.0
52535.0,STARLINK-3958,PAYLOAD,2023-09-16 04:59:57,15.08840505,0.0001428,53.2164,233.9796,96.5784,263.5371,0.00011668,1.57e-05,0.0,0 STARLINK-3958,1 52535U 22051C   23259.20830490  .00001570  00000-0  11668-3 0  9995,2 52535  53.2164 233.9796 0001428  96.5784 263.5371 15.08840505 74741,6917.879,95.438,540.732,538.756,0.0
52535.0,STARLINK-3958,PAYLOAD,2023-09-17 08:01:31,15.08840803,0.0001547,53.2167,228.928,99.0089,261.1078,7.2817e-06,-1.72e-06,0.0,0 STARLINK-3958,1 52535U 22051C   23260.33438877 -.00000172  00000-0  72817-5 0  9997,2 52535  53.2167 228.9280 0001547  99.0089 261.1078 15.08840803 74989,6917.878,95.438,540.813,538.673,0.0
52535.0,STARLINK-3958,PAYLOAD,2023-09-18 07:52:17,15.08851407,0.0001368,53.2166,224.4681,89.6131,270.5018,0.00013479,1.859e-05,0.0,0 STARLINK-3958,1 52535U 22051C   23261.32797743  .00001859  00000-0  13479-3 0  9996,2 52535  53.2166 224.4681 0001368  89.6131 270.5018 15.08851407 75136,6917.846,95.437,540.657,538.764,0.0
52535.0,STARLINK-3958,PAYLOAD,2023-09-19 02:56:55,15.08841147,0.0001604,53.2167,220.8983,107.6126,252.5041,9.8745e-05,1.284e-05,0.0,0 STARLINK-3958,1 52535U 22051C   23262.12286609  .00001284  00000-0  98745-4 0  9991,2 52535  53.2167 220.8983 0001604 107.6126 252.5041 15.08841147 75259,6917.877,95.437,540.852,538.632,0.0
52535.0,STARLINK-3958,PAYLOAD,2023-09-19 06:07:41,15.08851103,0.0001607,53.2164,220.3075,105.2035,254.9135,0.00020175,2.925e-05,0.0,0 STARLINK-3958,1 52535U 22051C   23262.25534014  .00002925  00000-0  20175-3 0  9995,2 52535  53.2164 220.3075 0001607 105.2035 254.9135 15.08851103 75274,6917.846,95.437,540.823,538.6,0.0
52535.0,STARLINK-3958,PAYLOAD,2023-09-20 04:23:07,15.08822877,0.0001464,53.2163,216.1418,92.662,267.4539,-0.00023091,-3.959e-05,0.0,0 STARLINK-3958,1 52535U 22051C   23263.18272103 -.00003959  00000-0 -23091-3 0  9996,2 52535  53.2163 216.1418 0001464  92.6620 267.4539 15.08822877 75416,6917.933,95.439,540.811,538.785,0.0
52535.0,STARLINK-3958,PAYLOAD,2023-09-20 13:55:25,15.08830303,0.0001421,53.2163,214.3577,90.4125,269.703,-7.5941e-05,-1.496e-05,0.0,0 STARLINK-3958,1 52535U 22051C   23263.58016134 -.00001496  00000-0 -75941-4 0  9996,2 52535  53.2163 214.3577 0001421  90.4125 269.7030 15.08830303 75404,6917.91,95.438,540.758,538.792,0.0
52535.0,STARLINK-3958,PAYLOAD,2023-09-21 05:49:17,15.08852243,0.0001352,53.2152,211.3856,92.5818,267.5329,0.0010537,0.00016527,0.0,0 STARLINK-3958,1 52535U 22051C   23264.24256458  .00016527  00000-0  10537-2 0  9992,2 52535  53.2152 211.3856 0001352  92.5818 267.5329 15.08852243 75576,6917.843,95.437,540.643,538.773,0.0
52535.0,STARLINK-3958,PAYLOAD,2023-09-22 04:04:41,15.08860712,0.0001465,53.2153,207.2203,90.2215,269.8945,0.00070564,0.00010966,0.0,0 STARLINK-3958,1 52535U 22051C   23265.16991942  .00010966  00000-0  70564-3 0  9996,2 52535  53.2153 207.2203 0001465  90.2215 269.8945 15.08860712 75713,6917.817,95.436,540.696,538.669,0.0
52535.0,STARLINK-3958,PAYLOAD,2023-09-22 05:40:04,15.08863618,0.000146,53.2153,206.9226,90.4216,269.6943,0.00079395,0.00012378,0.0,0 STARLINK-3958,1 52535U 22051C   23265.23615825  .00012378  00000-0  79395-3 0  9997,2 52535  53.2153 206.9226 0001460  90.4216 269.6943 15.08863618 75659,6917.808,95.436,540.683,538.663,0.0
52535.0,STARLINK-3958,PAYLOAD,2023-09-23 02:20:04,15.08862672,0.000144,53.2152,203.058,97.8632,262.2523,0.0010453,0.00016397,0.0,0 STARLINK-3958,1 52535U 22051C   23266.09727415  .00016397  00000-0  10453-2 0  9995,2 52535  53.2152 203.0580 0001440  97.8632 262.2523 15.08862672 75854,6917.811,95.436,540.672,538.68,0.0
52535.0,STARLINK-3958,PAYLOAD,2023-09-23 05:30:50,15.08867209,0.0001464,53.2152,202.4632,97.3431,262.7728,0.0011257,0.00017686,0.0,0 STARLINK-3958,1 52535U 22051C   23266.22975196  .00017686  00000-0  11257-2 0  9996,2 52535  53.2152 202.4632 0001464  97.3431 262.7728 15.08867209 75801,6917.797,95.436,540.675,538.649,0.0
52535.0,STARLINK-3958,PAYLOAD,2023-09-24 02:10:51,15.08847999,0.0001351,53.2156,198.596,94.7283,265.3863,0.00068702,0.00010665,0.0,0 STARLINK-3958,1 52535U 22051C   23267.09087324  .00010665  00000-0  68702-3 0  9997,2 52535  53.2156 198.5960 0001351  94.7283 265.3863 15.08847999 76001,6917.856,95.437,540.656,538.786,0.0
52535.0,STARLINK-3958,PAYLOAD,2023-09-24 05:21:37,15.08852028,0.0001314,53.2157,198.0015,91.3663,268.748,0.00090433,0.00014138,0.0,0 STARLINK-3958,1 52535U 22051C   23267.22335246  .00014138  00000-0  90433-3 0  9996,2 52535  53.2157 198.0015 0001314  91.3663 268.7480 15.08852028 75956,6917.844,95.437,540.618,538.8,0.0
52535.0,STARLINK-3958,PAYLOAD,2023-09-24 19:40:06,15.08844724,0.0001377,53.2158,195.3277,100.0792,260.0355,0.00064827,0.00010046,0.0,0 STARLINK-3958,1 52535U 22051C   23267.81951636  .00010046  00000-0  64827-3 0  9990,2 52535  53.2158 195.3277 0001377 100.0792 260.0355 15.08844724 76116,6917.866,95.437,540.684,538.778,0.0
52535.0,STARLINK-3958,PAYLOAD,2023-09-25 11:33:57,15.08855957,0.0001383,53.2165,192.3531,112.7766,247.3373,0.00079775,0.00012437,0.0,0 STARLINK-3958,1 52535U 22051C   23268.48191235  .00012437  00000-0  79775-3 0  9999,2 52535  53.2165 192.3531 0001383 112.7766 247.3373 15.08855957 76143,6917.832,95.437,540.653,538.74,0.0
52535.0,STARLINK-3958,PAYLOAD,2023-09-26 01:52:24,15.08864506,0.0001853,53.2173,189.6798,126.1437,233.9727,0.00075887,0.00011818,0.0,0 STARLINK-3958,1 52535U 22051C   23269.07806625  .00011818  00000-0  75887-3 0  9993,2 52535  53.2173 189.6798 0001853 126.1437 233.9727 15.08864506 76304,6917.805,95.436,540.952,538.389,0.0
52535.0,STARLINK-3958,PAYLOAD,2023-09-26 19:21:39,15.08837046,0.0001564,53.2175,186.4048,101.0805,259.0363,6.8947e-05,8.09e-06,0.0,0 STARLINK-3958,1 52535U 22051C   23269.80671283  .00000809  00000-0  68947-4 0  9992,2 52535  53.2175 186.4048 0001564 101.0805 259.0363 15.08837046 76415,6917.889,95.438,540.836,538.672,0.0
